{"type": "FeatureCollection", "features": [ {"type": "Feature", "properties": {"norad_id": 66668, "name": "TRANSPORTER-15C", "group": "last-30-days", "lat": 64.72968680087169, "lon": 56.78893741468105, "alt_km": 504.42745909322184, "timestamp": "2025-12-27T09:28:55.182556+00:00", "meta": {"OBJECT_NAME": "TRANSPORTER-15C", "OBJECT_ID": "2025-276C", "EPOCH": "2025-12-26T12:40:51.383136", "MEAN_MOTION": 15.21988406, "ECCENTRICITY": 0.0016178, "INCLINATION": 97.4332, "RA_OF_ASC_NODE": 71.9879, "ARG_OF_PERICENTER": 258.9437, "MEAN_ANOMALY": 100.9979, "EPHEMERIS_TYPE": 0, "CLASSIFICATION_TYPE": "U", "NORAD_CAT_ID": 66668, "ELEMENT_SET_NO": 999, "REV_AT_EPOCH": 421, "BSTAR": 0.00071782, "MEAN_MOTION_DOT": 0.00016393, "MEAN_MOTION_DDOT": 0}, "tle": {"line1": "1 66668U 25276C   25360.52837249  .00016393  00000+0  71782-3 0  9999", "line2": "2 66668  97.4332  71.9879 0016178 258.9437 100.9979 15.21988406  4210"}}, "geometry": {"type": "Point", "coordinates": [56.78893741468105, 64.72968680087169]}}, {"type": "Feature", "properties": {"norad_id": 66669, "name": "TRANSPORTER-15D", "group": "last-30-days", "lat": 43.47737518599521, "lon": 65.73452247113525, "alt_km": 514.1187348736348, "timestamp": "2025-12-27T09:28:55.182566+00:00", "meta": {"OBJECT_NAME": "TRANSPORTER-15D", "OBJECT_ID": "2025-276D", "EPOCH": "2025-12-26T04:48:12.178080", "MEAN_MOTION": 15.17501415, "ECCENTRICITY": 0.000747, "INCLINATION": 97.4282, "RA_OF_ASC_NODE": 71.6689, "ARG_OF_PERICENTER": 258.0077, "MEAN_ANOMALY": 102.032, "EPHEMERIS_TYPE": 0, "CLASSIFICATION_TYPE": "U", "NORAD_CAT_ID": 66669, "ELEMENT_SET_NO": 999, "REV_AT_EPOCH": 416, "BSTAR": 0.0012, "MEAN_MOTION_DOT": 0.00024063, "MEAN_MOTION_DDOT": 0}, "tle": {"line1": "1 66669U 25276D   25360.20014095  .00024063  00000+0  12000-2 0  9991", "line2": "2 66669  97.4282  71.6689 0007470 258.0077 102.0320 15.17501415  4160"}}, "geometry": {"type": "Point", "coordinates": [65.73452247113525, 43.47737518599521]}}, {"type": "Feature", "properties": {"norad_id": 66670, "name": "HUNITY", "group": "last-30-days", "lat": 38.98654783947918, "lon": 66.77959854547888, "alt_km": 514.6763960449543, "timestamp": "2025-12-27T09:28:55.182576+00:00", "meta": {"OBJECT_NAME": "HUNITY", "OBJECT_ID": "2025-276E", "EPOCH": "2025-12-26T19:03:55.659744", "MEAN_MOTION": 15.1744087, "ECCENTRICITY": 0.0007097, "INCLINATION": 97.4293, "RA_OF_ASC_NODE": 72.2531, "ARG_OF_PERICENTER": 255.1008, "MEAN_ANOMALY": 104.944, "EPHEMERIS_TYPE": 0, "CLASSIFICATION_TYPE": "U", "NORAD_CAT_ID": 66670, "ELEMENT_SET_NO": 999, "REV_AT_EPOCH": 425, "BSTAR": 0.0013401, "MEAN_MOTION_DOT": 0.00026842, "MEAN_MOTION_DDOT": 0}, "tle": {"line1": "1 66670U 25276E   25360.79439421  .00026842  00000+0  13401-2 0  9994", "line2": "2 66670  97.4293  72.2531 0007097 255.1008 104.9440 15.17440870  4255"}}, "geometry": {"type": "Point", "coordinates": [66.77959854547888, 38.98654783947918]}}, {"type": "Feature", "properties": {"norad_id": 66671, "name": "TRANSPORTER-15F", "group": "last-30-days", "lat": 47.10026188528759, "lon": 64.80194321866773, "alt_km": 513.6687114569941, "timestamp": "2025-12-27T09:28:55.182588+00:00", "meta": {"OBJECT_NAME": "TRANSPORTER-15F", "OBJECT_ID": "2025-276F", "EPOCH": "2025-12-27T04:31:26.742144", "MEAN_MOTION": 15.17227678, "ECCENTRICITY": 0.0005194, "INCLINATION": 97.4416, "RA_OF_ASC_NODE": 72.685, "ARG_OF_PERICENTER": 233.1095, "MEAN_ANOMALY": 126.9663, "EPHEMERIS_TYPE": 0, "CLASSIFICATION_TYPE": "U", "NORAD_CAT_ID": 66671, "ELEMENT_SET_NO": 999, "REV_AT_EPOCH": 431, "BSTAR": 0.00074124, "MEAN_MOTION_DOT": 0.00014698, "MEAN_MOTION_DDOT": 0}, "tle": {"line1": "1 66671U 25276F   25361.18850396  .00014698  00000+0  74124-3 0  9993", "line2": "2 66671  97.4416  72.6850 0005194 233.1095 126.9663 15.17227678  4316"}}, "geometry": {"type": "Point", "coordinates": [64.80194321866773, 47.10026188528759]}}, {"type": "Feature", "properties": {"norad_id": 66672, "name": "TRANSPORTER-15G", "group": "last-30-days", "lat": 12.717183809247919, "lon": 71.17419006156963, "alt_km": 520.2460930246216, "timestamp": "2025-12-27T09:28:55.182599+00:00", "meta": {"OBJECT_NAME": "TRANSPORTER-15G", "OBJECT_ID": "2025-276G", "EPOCH": "2025-12-27T04:40:31.058688", "MEAN_MOTION": 15.16669771, "ECCENTRICITY": 0.0005561, "INCLINATION": 97.4388, "RA_OF_ASC_NODE": 72.6674, "ARG_OF_PERICENTER": 230.6749, "MEAN_ANOMALY": 129.3991, "EPHEMERIS_TYPE": 0, "CLASSIFICATION_TYPE": "U", "NORAD_CAT_ID": 66672, "ELEMENT_SET_NO": 999, "REV_AT_EPOCH": 431, "BSTAR": 0.00049546, "MEAN_MOTION_DOT": 9.641e-05, "MEAN_MOTION_DDOT": 0}, "tle": {"line1": "1 66672U 25276G   25361.19480392  .00009641  00000+0  49546-3 0  9992", "line2": "2 66672  97.4388  72.6674 0005561 230.6749 129.3991 15.16669771  4319"}}, "geometry": {"type": "Point", "coordinates": [71.17419006156963, 12.717183809247919]}}, {"type": "Feature", "properties": {"norad_id": 66673, "name": "TRANSPORTER-15H", "group": "last-30-days", "lat": 80.22949500055161, "lon": 23.558989429411486, "alt_km": 511.63572078688503, "timestamp": "2025-12-27T09:28:55.182611+00:00", "meta": {"OBJECT_NAME": "TRANSPORTER-15H", "OBJECT_ID": "2025-276H", "EPOCH": "2025-12-27T04:22:33.699936", "MEAN_MOTION": 15.20573924, "ECCENTRICITY": 0.0021779, "INCLINATION": 97.4348, "RA_OF_ASC_NODE": 72.6673, "ARG_OF_PERICENTER": 291.1344, "MEAN_ANOMALY": 68.7563, "EPHEMERIS_TYPE": 0, "CLASSIFICATION_TYPE": "U", "NORAD_CAT_ID": 66673, "ELEMENT_SET_NO": 999, "REV_AT_EPOCH": 431, "BSTAR": -0.056045, "MEAN_MOTION_DOT": -0.0112796, "MEAN_MOTION_DDOT": 0}, "tle": {"line1": "1 66673U 25276H   25361.18233449 -.01127960  00000+0 -56045-1 0  9999", "line2": "2 66673  97.4348  72.6673 0021779 291.1344  68.7563 15.20573924  4317"}}, "geometry": {"type": "Point", "coordinates": [23.558989429411486, 80.22949500055161]}}, {"type": "Feature", "properties": {"norad_id": 66674, "name": "TRANSPORTER-15J", "group": "last-30-days", "lat": 24.158616601648422, "lon": 69.50224911505161, "alt_km": 518.1084300523389, "timestamp": "2025-12-27T09:28:55.182623+00:00", "meta": {"OBJECT_NAME": "TRANSPORTER-15J", "OBJECT_ID": "2025-276J", "EPOCH": "2025-12-27T04:37:29.528832", "MEAN_MOTION": 15.16785472, "ECCENTRICITY": 0.0005123, "INCLINATION": 97.4367, "RA_OF_ASC_NODE": 72.6626, "ARG_OF_PERICENTER": 235.0676, "MEAN_ANOMALY": 125.0076, "EPHEMERIS_TYPE": 0, "CLASSIFICATION_TYPE": "U", "NORAD_CAT_ID": 66674, "ELEMENT_SET_NO": 999, "REV_AT_EPOCH": 431, "BSTAR": 0.00027955, "MEAN_MOTION_DOT": 5.426e-05, "MEAN_MOTION_DDOT": 0}, "tle": {"line1": "1 66674U 25276J   25361.19270288  .00005426  00000+0  27955-3 0  9992", "line2": "2 66674  97.4367  72.6626 0005123 235.0676 125.0076 15.16785472  4311"}}, "geometry": {"type": "Point", "coordinates": [69.50224911505161, 24.158616601648422]}}, {"type": "Feature", "properties": {"norad_id": 66675, "name": "TRANSPORTER-15K", "group": "last-30-days", "lat": 30.28725721136839, "lon": 68.49191723559778, "alt_km": 531.4949894611318, "timestamp": "2025-12-27T09:28:55.182633+00:00", "meta": {"OBJECT_NAME": "TRANSPORTER-15K", "OBJECT_ID": "2025-276K", "EPOCH": "2025-12-26T22:14:18.407616", "MEAN_MOTION": 15.14108486, "ECCENTRICITY": 0.0013986, "INCLINATION": 97.4377, "RA_OF_ASC_NODE": 72.4107, "ARG_OF_PERICENTER": 151.0165, "MEAN_ANOMALY": 209.1846, "EPHEMERIS_TYPE": 0, "CLASSIFICATION_TYPE": "U", "NORAD_CAT_ID": 66675, "ELEMENT_SET_NO": 999, "REV_AT_EPOCH": 427, "BSTAR": -0.095744, "MEAN_MOTION_DOT": -0.01588729, "MEAN_MOTION_DDOT": 0}, "tle": {"line1": "1 66675U 25276K   25360.92660194 -.01588729  00000+0 -95744-1 0  9996", "line2": "2 66675  97.4377  72.4107 0013986 151.0165 209.1846 15.14108486  4277"}}, "geometry": {"type": "Point", "coordinates": [68.49191723559778, 30.28725721136839]}}, {"type": "Feature", "properties": {"norad_id": 66676, "name": "TRANSPORTER-15L", "group": "last-30-days", "lat": 43.02773161953156, "lon": 65.87224471578054, "alt_km": 502.9265065276513, "timestamp": "2025-12-27T09:28:55.182643+00:00", "meta": {"OBJECT_NAME": "TRANSPORTER-15L", "OBJECT_ID": "2025-276L", "EPOCH": "2025-12-26T22:15:03.790080", "MEAN_MOTION": 15.21479103, "ECCENTRICITY": 0.0020037, "INCLINATION": 97.4379, "RA_OF_ASC_NODE": 72.4133, "ARG_OF_PERICENTER": 249.3672, "MEAN_ANOMALY": 110.5415, "EPHEMERIS_TYPE": 0, "CLASSIFICATION_TYPE": "U", "NORAD_CAT_ID": 66676, "ELEMENT_SET_NO": 999, "REV_AT_EPOCH": 427, "BSTAR": 0.11277, "MEAN_MOTION_DOT": 0.02822166, "MEAN_MOTION_DDOT": 0}, "tle": {"line1": "1 66676U 25276L   25360.92712720  .02822166  00000+0  11277+0 0  9992", "line2": "2 66676  97.4379  72.4133 0020037 249.3672 110.5415 15.21479103  4270"}}, "geometry": {"type": "Point", "coordinates": [65.87224471578054, 43.02773161953156]}}, {"type": "Feature", "properties": {"norad_id": 66677, "name": "TRANSPORTER-15M", "group": "last-30-days", "lat": 78.9180243331782, "lon": 31.0547869565881, "alt_km": 508.42946762667725, "timestamp": "2025-12-27T09:28:55.182654+00:00", "meta": {"OBJECT_NAME": "TRANSPORTER-15M", "OBJECT_ID": "2025-276M", "EPOCH": "2025-12-27T04:22:32.848032", "MEAN_MOTION": 15.17695454, "ECCENTRICITY": 0.0004572, "INCLINATION": 97.4375, "RA_OF_ASC_NODE": 72.6784, "ARG_OF_PERICENTER": 247.0523, "MEAN_ANOMALY": 113.0228, "EPHEMERIS_TYPE": 0, "CLASSIFICATION_TYPE": "U", "NORAD_CAT_ID": 66677, "ELEMENT_SET_NO": 999, "REV_AT_EPOCH": 431, "BSTAR": 0.0036233, "MEAN_MOTION_DOT": 0.00073659, "MEAN_MOTION_DDOT": 0}, "tle": {"line1": "1 66677U 25276M   25361.18232463  .00073659  00000+0  36233-2 0  9998", "line2": "2 66677  97.4375  72.6784 0004572 247.0523 113.0228 15.17695454  4316"}}, "geometry": {"type": "Point", "coordinates": [31.0547869565881, 78.9180243331782]}}]}